STARLINK-1376           
1 45570U 20025AR  26068.26181051 -.00000290  00000+0  22869-5 0  9999
2 45570  53.1611  79.7883 0001364  91.4272 268.6885 15.29355327325433
TOMORROW-S1             
1 60479U 24149M   26068.72470524  .00008620  00000+0  28856-3 0  9996
2 60479  97.3791 149.6044 0001819 207.2040 152.9106 15.31198362 86867
